[{"OBJECT_NAME":"HULIANWAN GAOGUI-01 (HG-01)","OBJECT_ID":"2024-040A","EPOCH":"2026-04-04T20:42:38.824704","MEAN_MOTION":1.00271154,"ECCENTRICITY":0.00040475,"INCLINATION":0.0672,"RA_OF_ASC_NODE":317.9532,"ARG_OF_PERICENTER":59.1028,"MEAN_ANOMALY":160.3983,"EPHEMERIS_TYPE":0,"CLASSIFICATION_TYPE":"U","NORAD_CAT_ID":59069,"ELEMENT_SET_NO":999,"REV_AT_EPOCH":659,"BSTAR":0,"MEAN_MOTION_DOT":1.56e-6,"MEAN_MOTION_DDOT":0},{"OBJECT_NAME":"EUTELSAT 36D","OBJECT_ID":"2024-059A","EPOCH":"2026-04-04T20:42:38.824704","MEAN_MOTION":1.00271992,"ECCENTRICITY":6.348e-5,"INCLINATION":0.0187,"RA_OF_ASC_NODE":172.217,"ARG_OF_PERICENTER":276.1683,"MEAN_ANOMALY":91.3166,"EPHEMERIS_TYPE":0,"CLASSIFICATION_TYPE":"U","NORAD_CAT_ID":59346,"ELEMENT_SET_NO":999,"REV_AT_EPOCH":741,"BSTAR":0,"MEAN_MOTION_DOT":1.56e-6,"MEAN_MOTION_DDOT":0},{"OBJECT_NAME":"PAKSAT-MM1","OBJECT_ID":"2024-104A","EPOCH":"2026-04-04T20:42:38.824704","MEAN_MOTION":1.00271532,"ECCENTRICITY":0.00025052,"INCLINATION":0.0101,"RA_OF_ASC_NODE":214.9606,"ARG_OF_PERICENTER":158.8762,"MEAN_ANOMALY":168.1984,"EPHEMERIS_TYPE":0,"CLASSIFICATION_TYPE":"U","NORAD_CAT_ID":59915,"ELEMENT_SET_NO":999,"REV_AT_EPOCH":679,"BSTAR":0,"MEAN_MOTION_DOT":1.54e-6,"MEAN_MOTION_DDOT":0},{"OBJECT_NAME":"ASTRA 1P (SES-24)","OBJECT_ID":"2024-115A","EPOCH":"2026-04-04T21:26:09.594240","MEAN_MOTION":1.0027647,"ECCENTRICITY":0.00027885,"INCLINATION":0.0685,"RA_OF_ASC_NODE":26.1978,"ARG_OF_PERICENTER":290.04,"MEAN_ANOMALY":217.6998,"EPHEMERIS_TYPE":0,"CLASSIFICATION_TYPE":"U","NORAD_CAT_ID":60086,"ELEMENT_SET_NO":999,"REV_AT_EPOCH":646,"BSTAR":0,"MEAN_MOTION_DOT":1.21e-6,"MEAN_MOTION_DDOT":0},{"OBJECT_NAME":"GOES 19","OBJECT_ID":"2024-119A","EPOCH":"2026-04-04T20:59:06.516672","MEAN_MOTION":1.0027161,"ECCENTRICITY":9.763e-5,"INCLINATION":0.0448,"RA_OF_ASC_NODE":39.8414,"ARG_OF_PERICENTER":21.0955,"MEAN_ANOMALY":11.8262,"EPHEMERIS_TYPE":0,"CLASSIFICATION_TYPE":"U","NORAD_CAT_ID":60133,"ELEMENT_SET_NO":999,"REV_AT_EPOCH":622,"BSTAR":0,"MEAN_MOTION_DOT":-2.48e-6,"MEAN_MOTION_DDOT":0},{"OBJECT_NAME":"ZHONGXING-3A","OBJECT_ID":"2024-122A","EPOCH":"2026-04-04T21:37:19.743744","MEAN_MOTION":1.00271772,"ECCENTRICITY":0.000302,"INCLINATION":0.0468,"RA_OF_ASC_NODE":14.566,"ARG_OF_PERICENTER":78.2649,"MEAN_ANOMALY":166.2956,"EPHEMERIS_TYPE":0,"CLASSIFICATION_TYPE":"U","NORAD_CAT_ID":60179,"ELEMENT_SET_NO":999,"REV_AT_EPOCH":657,"BSTAR":0,"MEAN_MOTION_DOT":-3.13e-6,"MEAN_MOTION_DDOT":0},{"OBJECT_NAME":"TURKSAT 6A","OBJECT_ID":"2024-127A","EPOCH":"2026-04-04T19:49:53.172768","MEAN_MOTION":1.00268806,"ECCENTRICITY":0.00013869,"INCLINATION":0.0363,"RA_OF_ASC_NODE":213.2074,"ARG_OF_PERICENTER":124.9922,"MEAN_ANOMALY":194.4554,"EPHEMERIS_TYPE":0,"CLASSIFICATION_TYPE":"U","NORAD_CAT_ID":60233,"ELEMENT_SET_NO":999,"REV_AT_EPOCH":628,"BSTAR":0,"MEAN_MOTION_DOT":1.47e-6,"MEAN_MOTION_DDOT":0},{"OBJECT_NAME":"HULIANWAN GAOGUI-02 (HG-02)","OBJECT_ID":"2024-135A","EPOCH":"2026-04-04T22:04:12.629568","MEAN_MOTION":1.00271837,"ECCENTRICITY":0.00086515,"INCLINATION":0.0508,"RA_OF_ASC_NODE":16.962,"ARG_OF_PERICENTER":338.3651,"MEAN_ANOMALY":322.0085,"EPHEMERIS_TYPE":0,"CLASSIFICATION_TYPE":"U","NORAD_CAT_ID":60327,"ELEMENT_SET_NO":999,"REV_AT_EPOCH":676,"BSTAR":0,"MEAN_MOTION_DOT":-1.73e-6,"MEAN_MOTION_DDOT":0},{"OBJECT_NAME":"ZHONGXING-4A","OBJECT_ID":"2024-151A","EPOCH":"2026-04-04T22:11:59.653536","MEAN_MOTION":1.00273309,"ECCENTRICITY":0.00012054,"INCLINATION":1.5039,"RA_OF_ASC_NODE":271.6365,"ARG_OF_PERICENTER":103.2755,"MEAN_ANOMALY":269.538,"EPHEMERIS_TYPE":0,"CLASSIFICATION_TYPE":"U","NORAD_CAT_ID":60606,"ELEMENT_SET_NO":999,"REV_AT_EPOCH":602,"BSTAR":0,"MEAN_MOTION_DOT":-3.63e-6,"MEAN_MOTION_DDOT":0},{"OBJECT_NAME":"HULIANWAN GAOGUI-03 (HG-03)","OBJECT_ID":"2024-181A","EPOCH":"2026-04-04T00:26:27.961152","MEAN_MOTION":1.00274413,"ECCENTRICITY":7.408e-5,"INCLINATION":0.0528,"RA_OF_ASC_NODE":21.6745,"ARG_OF_PERICENTER":110.0044,"MEAN_ANOMALY":350.1418,"EPHEMERIS_TYPE":0,"CLASSIFICATION_TYPE":"U","NORAD_CAT_ID":61503,"ELEMENT_SET_NO":999,"REV_AT_EPOCH":608,"BSTAR":0,"MEAN_MOTION_DOT":-2.42e-6,"MEAN_MOTION_DDOT":0},{"OBJECT_NAME":"DSN-3 (KIRAMEKI-3)","OBJECT_ID":"2024-198A","EPOCH":"2026-04-04T22:01:42.868992","MEAN_MOTION":1.00273422,"ECCENTRICITY":9.577e-5,"INCLINATION":0.018,"RA_OF_ASC_NODE":205.5828,"ARG_OF_PERICENTER":148.6916,"MEAN_ANOMALY":313.4329,"EPHEMERIS_TYPE":0,"CLASSIFICATION_TYPE":"U","NORAD_CAT_ID":61733,"ELEMENT_SET_NO":999,"REV_AT_EPOCH":518,"BSTAR":0,"MEAN_MOTION_DOT":-2.49e-6,"MEAN_MOTION_DDOT":0},{"OBJECT_NAME":"KOREASAT 6A","OBJECT_ID":"2024-206A","EPOCH":"2026-04-04T21:12:06.312096","MEAN_MOTION":1.00272691,"ECCENTRICITY":0.00011079,"INCLINATION":0.0099,"RA_OF_ASC_NODE":196.5432,"ARG_OF_PERICENTER":176.1859,"MEAN_ANOMALY":254.4883,"EPHEMERIS_TYPE":0,"CLASSIFICATION_TYPE":"U","NORAD_CAT_ID":61910,"ELEMENT_SET_NO":999,"REV_AT_EPOCH":510,"BSTAR":0,"MEAN_MOTION_DOT":-3.61e-6,"MEAN_MOTION_DDOT":0},{"OBJECT_NAME":"OPTUS-X (ADS-01)","OBJECT_ID":"2024-212A","EPOCH":"2026-04-04T20:22:32.522592","MEAN_MOTION":1.00271374,"ECCENTRICITY":0.0001351,"INCLINATION":0.0199,"RA_OF_ASC_NODE":235.4309,"ARG_OF_PERICENTER":171.4129,"MEAN_ANOMALY":248.3303,"EPHEMERIS_TYPE":0,"CLASSIFICATION_TYPE":"U","NORAD_CAT_ID":62006,"ELEMENT_SET_NO":999,"REV_AT_EPOCH":502,"BSTAR":0,"MEAN_MOTION_DOT":-1.43e-6,"MEAN_MOTION_DDOT":0},{"OBJECT_NAME":"GSAT-N2 (GSAT-20)","OBJECT_ID":"2024-214A","EPOCH":"2026-04-04T21:57:21.682656","MEAN_MOTION":1.00272353,"ECCENTRICITY":8.6e-5,"INCLINATION":0.0109,"RA_OF_ASC_NODE":216.4546,"ARG_OF_PERICENTER":268.8487,"MEAN_ANOMALY":105.1969,"EPHEMERIS_TYPE":0,"CLASSIFICATION_TYPE":"U","NORAD_CAT_ID":62028,"ELEMENT_SET_NO":999,"REV_AT_EPOCH":516,"BSTAR":0,"MEAN_MOTION_DOT":-1.9e-7,"MEAN_MOTION_DDOT":0},{"OBJECT_NAME":"SXM-9","OBJECT_ID":"2024-234A","EPOCH":"2026-04-03T20:58:45.336576","MEAN_MOTION":1.00271658,"ECCENTRICITY":0.00046598,"INCLINATION":0.0167,"RA_OF_ASC_NODE":267.7206,"ARG_OF_PERICENTER":46.7741,"MEAN_ANOMALY":107.2289,"EPHEMERIS_TYPE":0,"CLASSIFICATION_TYPE":"U","NORAD_CAT_ID":62259,"ELEMENT_SET_NO":999,"REV_AT_EPOCH":482,"BSTAR":0,"MEAN_MOTION_DOT":-2.07e-6,"MEAN_MOTION_DDOT":0},{"OBJECT_NAME":"TJS-12","OBJECT_ID":"2024-246A","EPOCH":"2026-04-04T22:02:20.308704","MEAN_MOTION":1.00274873,"ECCENTRICITY":0.0002395,"INCLINATION":0.8374,"RA_OF_ASC_NODE":293.4535,"ARG_OF_PERICENTER":51.5334,"MEAN_ANOMALY":325.3178,"EPHEMERIS_TYPE":0,"CLASSIFICATION_TYPE":"U","NORAD_CAT_ID":62374,"ELEMENT_SET_NO":999,"REV_AT_EPOCH":483,"BSTAR":0,"MEAN_MOTION_DOT":-2.31e-6,"MEAN_MOTION_DDOT":0},{"OBJECT_NAME":"NUVIEW ALPHA","OBJECT_ID":"2024-252B","EPOCH":"2026-04-04T20:56:51.731808","MEAN_MOTION":1.00272463,"ECCENTRICITY":0.00017022,"INCLINATION":0.0617,"RA_OF_ASC_NODE":31.1734,"ARG_OF_PERICENTER":346.0761,"MEAN_ANOMALY":47.0501,"EPHEMERIS_TYPE":0,"CLASSIFICATION_TYPE":"U","NORAD_CAT_ID":62455,"ELEMENT_SET_NO":999,"REV_AT_EPOCH":308,"BSTAR":0,"MEAN_MOTION_DOT":-2.15e-6,"MEAN_MOTION_DDOT":0}]
