HULIANWAN GAOGUI-01 (H*)
1 59069U 24040A   26094.86294936  .00000156  00000+0  00000+0 0  9997
2 59069   0.0672 317.9532 0004047  59.1028 160.3983  1.00271154  6597
EUTELSAT 36D            
1 59346U 24059A   26094.86294936  .00000156  00000+0  00000+0 0  9995
2 59346   0.0187 172.2170 0000634 276.1683  91.3166  1.00271992  7410
PAKSAT-MM1              
1 59915U 24104A   26094.86294936  .00000154  00000+0  00000+0 0  9996
2 59915   0.0101 214.9606 0002505 158.8762 168.1984  1.00271532  6790
ASTRA 1P (SES-24)       
1 60086U 24115A   26094.89316660  .00000121  00000+0  00000+0 0  9995
2 60086   0.0685  26.1978 0002788 290.0400 217.6998  1.00276470  6469
GOES 19                 
1 60133U 24119A   26094.87438098 -.00000248  00000+0  00000+0 0  9991
2 60133   0.0448  39.8414 0000976  21.0955  11.8262  1.00271610  6222
ZHONGXING-3A            
1 60179U 24122A   26094.90092296 -.00000313  00000+0  00000+0 0  9998
2 60179   0.0468  14.5660 0003020  78.2649 166.2956  1.00271772  6576
TURKSAT 6A              
1 60233U 24127A   26094.82630987  .00000147  00000+0  00000+0 0  9994
2 60233   0.0363 213.2074 0001386 124.9922 194.4554  1.00268806  6283
HULIANWAN GAOGUI-02 (H*)
1 60327U 24135A   26094.91959062 -.00000173  00000+0  00000+0 0  9995
2 60327   0.0508  16.9620 0008651 338.3651 322.0085  1.00271837  6764
ZHONGXING-4A            
1 60606U 24151A   26094.92499599 -.00000363  00000+0  00000+0 0  9999
2 60606   1.5039 271.6365 0001205 103.2755 269.5380  1.00273309  6025
HULIANWAN GAOGUI-03 (H*)
1 61503U 24181A   26094.01837918 -.00000242  00000+0  00000+0 0  9996
2 61503   0.0528  21.6745 0000740 110.0044 350.1418  1.00274413  6086
DSN-3 (KIRAMEKI-3)      
1 61733U 24198A   26094.91785728 -.00000249  00000+0  00000+0 0  9996
2 61733   0.0180 205.5828 0000957 148.6916 313.4329  1.00273422  5187
KOREASAT 6A             
1 61910U 24206A   26094.88340639 -.00000361  00000+0  00000+0 0  9992
2 61910   0.0099 196.5432 0001107 176.1859 254.4883  1.00272691  5101
OPTUS-X (ADS-01)        
1 62006U 24212A   26094.84898753 -.00000143  00000+0  00000+0 0  9995
2 62006   0.0199 235.4309 0001351 171.4129 248.3303  1.00271374  5021
GSAT-N2 (GSAT-20)       
1 62028U 24214A   26094.91483429 -.00000019  00000+0  00000+0 0  9991
2 62028   0.0109 216.4546 0000860 268.8487 105.1969  1.00272353  5161
SXM-9                   
1 62259U 24234A   26093.87413584 -.00000207  00000+0  00000+0 0  9997
2 62259   0.0167 267.7206 0004659  46.7741 107.2289  1.00271658  4826
TJS-12                  
1 62374U 24246A   26094.91829061 -.00000231  00000+0  00000+0 0  9992
2 62374   0.8374 293.4535 0002395  51.5334 325.3178  1.00274873  4833
NUVIEW ALPHA            
1 62455U 24252B   26094.87282097 -.00000215  00000+0  00000+0 0  9998
2 62455   0.0617  31.1734 0001702 346.0761  47.0501  1.00272463  3087
